LEDSAT                  
1 49069U 21073D   24296.73723300  .00036255  00000+0  11297-2 0  9991
2 49069  97.4230   7.5541 0016505 188.8943 171.2010 15.33037053175932
XW-3 (CAS-9)            
1 50466U 21131B   24296.85123095  .00001384  00000+0  45212-3 0  9997
2 50466  98.5232  21.3245 0005227 104.5046 255.6722 14.40122041148376
GREENCUBE               
1 53106U 22080B   24281.96479996 -.00000003  00000+0  00000+0 0  9995
2 53106  70.1376 153.3488 0008243  81.8360 278.3235  6.42557544 52511
CAS-5A (FO-118)         
1 54684U 22167C   24296.81600793  .00086545  00000+0  18066-2 0  9992
2 54684  97.6167  85.9399 0006473  45.4859 314.6917 15.45194325103894
STRATOSAT-TK 1 (RS52S)  
1 57167U 23091B   24296.78862148  .00029170  00000+0  13596-2 0  9992
2 57167  97.5936 349.9738 0013810  44.1146 316.1187 15.19754917 72884
UMKA 1 (RS40S)          
1 57172U 23091G   24296.80207409  .00010853  00000+0  66290-3 0  9992
2 57172  97.5956 347.6664 0017168  50.0012 310.2721 15.10340428 72735
CUBESX-HSE 3 (RS42S)    
1 57178U 23091N   24296.79962788  .00015910  00000+0  90325-3 0  9999
2 57178  97.5987 348.5105 0016918  43.3476 316.9082 15.12895153 72775
MONITOR-4 (RS57S)       
1 57182U 23091S   24296.83790056  .00015109  00000+0  87700-3 0  9999
2 57182  97.5973 348.2327 0017249  44.0262 316.2339 15.12105326 72760
MONITOR-2 (RS39S)       
1 57184U 23091U   24296.83688177  .00009573  00000+0  59050-3 0  9996
2 57184  97.5981 348.1161 0014352  39.9377 320.2905 15.10055150 72758
SVYATOBOR 1 (RS60S)     
1 57187U 23091X   24296.82780215  .00013285  00000+0  76288-3 0  9991
2 57187  97.5985 348.9028 0013450  36.5524 323.6622 15.12574570 72803
VIZARD-METEO (RS38S)    
1 57189U 23091Z   24296.83431401  .00017305  00000+0  93192-3 0  9994
2 57189  97.5974 349.6138 0012096  33.6816 326.5182 15.14825312 72853
NANOZOND 1 (RS49S)      
1 57190U 23091AA  24296.81492883  .00027437  00000+0  12890-2 0  9997
2 57190  97.5944 350.7042 0010051  37.8180 322.3759 15.19534176 72931
POLYTECH-UNIVERSE 3 (R*)
1 57191U 23091AB  24296.84384432  .00009389  00000+0  57773-3 0  9997
2 57191  97.5946 347.7471 0019794  54.6627 305.6449 15.10074067 72740
UTMN 2 (RS27S)          
1 57203U 23091AP  24296.81193135  .00015220  00000+0  83904-3 0  9992
2 57203  97.5975 349.3331 0012646  34.9909 325.2151 15.14014050 72830
ARCCUBE 1 (RS25S)       
1 57205U 23091AR  24296.78740036  .00033063  00000+0  14445-2 0  9996
2 57205  97.5900 351.0469 0009770  36.8835 323.3070 15.21992305 72964
KUZGTU 1 (RS47S)        
1 57217U 23091AV  24296.82459563  .00015557  00000+0  88999-3 0  9990
2 57217  97.5963 348.3214 0016844  44.1774 316.0798 15.12626660 72770
HADES-D (SO-121)        
1 58567U 23174CY  24294.19086658  .00708274  00000+0  52488-2 0  9998
2 58567  97.4311  12.6005 0004703 213.3138 146.7829 15.70825931 53058
SONATE-2                
1 59112U 24043Q   24296.35534649  .00019716  00000+0  81722-3 0  9999
2 59112  97.4921  59.3329 0013455 207.4906 152.5621 15.23847518 35137
MESAT1                  
1 60209U 24125G   24296.53110564  .00020605  00000+0  84971-3 0  9993
2 60209  97.3054 146.2747 0022695 235.4677 124.4418 15.23852698 16770
OOV-CUBE (TUBSAT-30)    
1 60240U 24128F   24296.07252519  .00005638  00000+0  49399-3 0  9991
2 60240  61.9966 161.5050 0020174 348.2645  11.7971 14.97639662 15606
CUTE-1 (CO-55)          
1 27844U 03031E   24296.53369605  .00000775  00000+0  35945-3 0  9999
2 27844  98.6794 301.8281 0010560 130.4831 229.7269 14.23562865105932
CUBESAT XI-IV (CO-57)   
1 27848U 03031J   24296.51954764  .00000666  00000+0  31504-3 0  9993
2 27848  98.6827 301.9833 0010178 145.8288 214.3547 14.22961733105641
CUBESAT XI-V            
1 28895U 05043F   24296.33709666  .00003821  00000+0  65944-3 0  9991
2 28895  98.2199  72.5799 0014517 317.9975  42.0116 14.68991517 13346
CUTE-1.7+APD II (CO-65) 
1 32785U 08021C   24296.87218741  .00011176  00000+0  91222-3 0  9991
2 32785  97.7753 261.4604 0007500 265.2874  94.7493 14.99573185894665
AAUSAT-II               
1 32788U 08021F   24296.44641567  .00045654  00000+0  16162-2 0  9990
2 32788  97.6047 278.0189 0009062  86.6437 273.5839 15.28953891897786
CANX-2                  
1 32790U 08021H   24296.47748365  .00007502  00000+0  64572-3 0  9999
2 32790  97.7850 259.6858 0009368 274.5552  85.4600 14.97624462894401
SEEDS II (CO-66)        
1 32791U 08021J   24296.38180456  .00015628  00000+0  99962-3 0  9990
2 32791  97.7064 267.3164 0002487 198.3389 161.7750 15.08686332895740
SWISSCUBE               
1 35932U 09051B   24296.20372698  .00002657  00000+0  56436-3 0  9993
2 35932  98.4503 181.9925 0005912 293.4387  66.6191 14.59952796801129
BEESAT-1                
1 35933U 09051C   24296.64744817  .00002276  00000+0  48888-3 0  9997
2 35933  98.4432 183.1784 0004490 309.3490  50.7311 14.59568851801291
ITUPSAT1                
1 35935U 09051E   24296.20676701  .00002105  00000+0  46402-3 0  9998
2 35935  98.4529 182.4417 0006922 315.0828  44.9810 14.58459582800800
TISAT 1                 
1 36799U 10035E   24296.25075124  .00015780  00000+0  10562-2 0  9998
2 36799  98.0706 191.4327 0004870 132.9839 227.1796 15.07009312776368
AEROCUBE 4.5A           
1 38767U 12048K   24296.35586056  .00035350  00000+0  15273-2 0  9992
2 38767  64.6558 263.5549 0112170 337.4039  22.2165 15.16723265279703
AEROCUBE 4.5B           
1 38768U 12048L   24296.82229645  .00095407  00000+0  19741-2 0  9996
2 38768  64.6478 175.3202 0075833 322.5830  37.0039 15.42165702280979
STRAND-1                
1 39090U 13009E   24296.49065509  .00000827  00000+0  29694-3 0  9994
2 39090  98.3801 121.3101 0007969 228.0385 132.0123 14.36374684610511
BRITE-AUSTRIA           
1 39091U 13009F   24296.49418453  .00000542  00000+0  20114-3 0  9997
2 39091  98.3849 120.5887 0009347 236.6964 123.3328 14.36010714610539
NEE-01 PEGASO           
1 39151U 13018B   24296.76331807  .00006177  00000+0  68325-3 0  9997
2 39151  98.0497  55.3705 0013933 347.0982  12.9875 14.87676674620933
ESTCUBE 1               
1 39161U 13021C   24296.70629935  .00003853  00000+0  54423-3 0  9990
2 39161  97.8140 359.2932 0009124 168.7631 191.3785 14.77705720615952
POPACS 1                
1 39268U 13055D   24296.19509815  .00052593 -35525-6  75730-3 0  9999
2 39268  80.9769   3.9765 0352961  40.2120 322.4645 15.07519386581032
POPACS 2                
1 39269U 13055E   24296.43664029  .00016194  00000+0  35977-3 0  9994
2 39269  80.9974 100.6481 0525628 293.1809  61.4852 14.62973602575382
POPACS 3                
1 39270U 13055F   24296.03016395  .00017104  00000+0  45238-3 0  9992
2 39270  81.0056 156.1642 0613384  88.3617 278.7692 14.40814596551202
ZACUBE-1 (TSHEPISOSAT)  
1 39417U 13066B   24296.54724429  .00009282  00000+0  90108-3 0  9991
2 39417  97.7498 249.9580 0050568  97.9285 262.7677 14.91875068590551
WNISAT-1                
1 39423U 13066H   24296.46840366  .00001660  00000+0  32164-3 0  9998
2 39423  97.6678 120.5303 0167727 329.8697  29.2934 14.55943428578952
TRITON-1                
1 39427U 13066M   24296.79712417  .00008641  00000+0  11626-2 0  9998
2 39427  97.8366 210.7724 0101092  31.6568 329.0668 14.75925711585218
DELFI-N3XT              
1 39428U 13066N   24296.33206109  .00013869  00000+0  16266-2 0  9998
2 39428  97.8332 211.5454 0097268  36.5829 324.1975 14.81685314585074
GOMX-1                  
1 39430U 13066Q   24296.58790176  .00004080  00000+0  66376-3 0  9993
2 39430  97.7097 163.2312 0136078 206.8394 152.5726 14.65554969581696
CUBEBUG-2 (LO-74)       
1 39440U 13066AA  24296.58110976  .00007641  00000+0  85073-3 0  9999
2 39440  97.8235 237.7406 0065314 215.7557 143.9277 14.85825225587236
NEE-02 KRYSAOR          
1 39441U 13066AB  24296.33939586  .00004381  00000+0  53832-3 0  9995
2 39441  97.8317 232.8217 0070297 241.6033 117.8082 14.81797841587914
FUNCUBE-1 (AO-73)       
1 39444U 13066AE  24296.43349895  .00012980  00000+0  11471-2 0  9993
2 39444  97.7354 253.3613 0048056  77.5928 283.0665 14.95568091589690
UWE-3                   
1 39446U 13066AG  24296.34979556  .00007277  00000+0  76290-3 0  9992
2 39446  97.7951 243.6411 0058224 158.7097 201.6562 14.88581580588196
BRITE-CA1 (TORONTO)     
1 40020U 14033L   24296.80228416  .00002333  00000+0  37444-3 0  9996
2 40020  97.8962  69.6356 0082636  45.2012 315.5874 14.70317524553722
DUCHIFAT-1              
1 40021U 14033M   24296.52859277  .00025658  00000+0  14232-2 0  9995
2 40021  98.1008 287.5092 0013723  39.9987 320.2250 15.13672853563345
NANOSATC-BR1            
1 40024U 14033Q   24296.49440131  .00019054  00000+0  12309-2 0  9995
2 40024  98.0781 274.3864 0008499  95.0407 265.1790 15.08257556562922
QB50P1                  
1 40025U 14033R   24296.45234662  .00012344  00000+0  90958-3 0  9994
2 40025  98.0598 261.8039 0014195 107.1802 253.0978 15.03401256562486
QB50P2                  
1 40032U 14033Y   24296.87258425  .00014231  00000+0  10903-2 0  9999
2 40032  98.0184 253.0330 0012815  64.7974 295.4577 15.01901717562331
PERSEUS-M2              
1 40037U 14033AD  24296.80383167  .00003749  00000+0  37763-3 0  9995
2 40037  97.9325 228.1629 0013995 128.8290 231.4180 14.91711926561347
PERSEUS-M1              
1 40039U 14033AF  24296.77849839  .00003765  00000+0  38060-3 0  9995
2 40039  97.9103 223.8182 0013849 127.7936 232.4539 14.91564386561202
POLYITAN-1              
1 40042U 14033AJ  24296.43352320  .00017077  00000+0  11187-2 0  9997
2 40042  98.0849 266.4611 0015132  68.9545 291.3299 15.07703440562486
TIGRISAT                
1 40043U 14033AK  24296.41536097  .00004989  00000+0  64424-3 0  9992
2 40043  97.7095  93.8783 0052963 248.3124 111.2444 14.80413942556578
